{
    "links": {
        "self": "http://www.neowsapp.com/rest/v1/neo/3802586?api_key=iIulBulltgU6a56xZRHN4H3l9WmuAYTsLGpBGhQ2"
    },
    "id": "3802586",
    "neo_reference_id": "3802586",
    "name": "(2018 GJ4)",
    "designation": "2018 GJ4",
    "nasa_jpl_url": "http://ssd.jpl.nasa.gov/sbdb.cgi?sstr=3802586",
    "absolute_magnitude_h": 21.7,
    "estimated_diameter": {
        "kilometers": {
            "estimated_diameter_min": 0.1214940408,
            "estimated_diameter_max": 0.2716689341
        },
        "meters": {
            "estimated_diameter_min": 121.4940407996,
            "estimated_diameter_max": 271.6689340891
        },
        "miles": {
            "estimated_diameter_min": 0.0754928736,
            "estimated_diameter_max": 0.1688071972
        },
        "feet": {
            "estimated_diameter_min": 398.6025088171,
            "estimated_diameter_max": 891.3023057169
        }
    },
    "is_potentially_hazardous_asteroid": false,
    "close_approach_data": [
        {
            "close_approach_date": "1989-04-17",
            "close_approach_date_full": "1989-Apr-17 02:25",
            "epoch_date_close_approach": 608783100000,
            "relative_velocity": {
                "kilometers_per_second": "7.2661941491",
                "kilometers_per_hour": "26158.2989365847",
                "miles_per_hour": "16253.7496920129"
            },
            "miss_distance": {
                "astronomical": "0.2713292167",
                "lunar": "105.5470652963",
                "kilometers": "40590272.887088429",
                "miles": "25221626.0296971602"
            },
            "orbiting_body": "Earth"
        },
        {
            "close_approach_date": "2018-04-17",
            "close_approach_date_full": "2018-Apr-17 04:24",
            "epoch_date_close_approach": 1523939040000,
            "relative_velocity": {
                "kilometers_per_second": "7.2962909055",
                "kilometers_per_hour": "26266.6472596376",
                "miles_per_hour": "16321.073126412"
            },
            "miss_distance": {
                "astronomical": "0.2625065066",
                "lunar": "102.1150310674",
                "kilometers": "39270414.248500942",
                "miles": "24401503.9012473196"
            },
            "orbiting_body": "Earth"
        },
        {
            "close_approach_date": "2044-04-03",
            "close_approach_date_full": "2044-Apr-03 14:12",
            "epoch_date_close_approach": 2343305520000,
            "relative_velocity": {
                "kilometers_per_second": "7.8423437425",
                "kilometers_per_hour": "28232.4374729491",
                "miles_per_hour": "17542.5387175666"
            },
            "miss_distance": {
                "astronomical": "0.3798329883",
                "lunar": "147.7550324487",
                "kilometers": "56822206.005414921",
                "miles": "35307681.5728150698"
            },
            "orbiting_body": "Earth"
        },
        {
            "close_approach_date": "2047-04-28",
            "close_approach_date_full": "2047-Apr-28 08:53",
            "epoch_date_close_approach": 2440054380000,
            "relative_velocity": {
                "kilometers_per_second": "7.6650018545",
                "kilometers_per_hour": "27594.0066761533",
                "miles_per_hour": "17145.842648302"
            },
            "miss_distance": {
                "astronomical": "0.4166504108",
                "lunar": "162.0770098012",
                "kilometers": "62330013.990304996",
                "miles": "38730074.7561451048"
            },
            "orbiting_body": "Earth"
        }
    ],
    "orbital_data": {
        "orbit_id": "8",
        "orbit_determination_date": "2018-06-09 06:26:33",
        "first_observation_date": "2018-04-13",
        "last_observation_date": "2018-06-09",
        "data_arc_in_days": 57,
        "observations_used": 43,
        "orbit_uncertainty": "6",
        "minimum_orbit_intersection": ".247366",
        "jupiter_tisserand_invariant": "3.682",
        "epoch_osculation": "2459000.5",
        "eccentricity": ".385347372034138",
        "semi_major_axis": "2.032833570367575",
        "inclination": "13.30773785830494",
        "ascending_node_longitude": "25.88873237427912",
        "orbital_period": "1058.646980091457",
        "perihelion_distance": "1.249486496243656",
        "perihelion_argument": "173.9262559356843",
        "aphelion_distance": "2.816180644491494",
        "perihelion_time": "2459270.938354280670",
        "mean_anomaly": "268.0356253104973",
        "mean_motion": ".3400567014028598",
        "equinox": "J2000",
        "orbit_class": {
            "orbit_class_type": "AMO",
            "orbit_class_description": "Near-Earth asteroid orbits similar to that of 1221 Amor",
            "orbit_class_range": "1.017 AU < q (perihelion) < 1.3 AU"
        }
    },
    "is_sentry_object": false
}